GLOBALSTAR M075         
1 37192U 10054E   25290.65190984 -.00000081  00000+0  12507-3 0  9999
2 37192  51.9929 168.6595 0000840  75.9694 301.9211 12.62268925691311
GLOBALSTAR M073         
1 37193U 10054F   25290.73033536 -.00000101  00000+0  17786-4 0  9996
2 37193  52.0053  82.3311 0000786 114.4141 259.0804 12.62263596693317
GLOBALSTAR M083         
1 37739U 11033A   25290.44026439 -.00000093  00000+0  61953-4 0  9997
2 37739  51.9880  31.7756 0000755 118.4193 318.0465 12.62276926662290
GLOBALSTAR M088         
1 37740U 11033B   25290.75179132 -.00000076  00000+0  15232-3 0  9991
2 37740  52.0216 296.6716 0000456  71.4818  99.7695 12.62268964657874
GLOBALSTAR M091         
1 37741U 11033C   25290.68561712 -.00000094  00000+0  53599-4 0  9992
2 37741  51.9988 260.1945 0000619  78.3665  92.6983 12.62260637658654
GLOBALSTAR M085         
1 37742U 11033D   25290.51421862 -.00000096  00000+0  43237-4 0  9996
2 37742  52.0117 211.7967 0000818  82.0227  89.7055 12.62265739659144
GLOBALSTAR M081         
1 37743U 11033E   25290.21856450 -.00000103  00000+0  50387-5 0  9993
2 37743  51.9951 215.4094 0000579  80.2473  66.9996 12.62269254659257
GLOBALSTAR M089         
1 37744U 11033F   25290.70841376 -.00000084  00000+0  10827-3 0  9990
2 37744  51.9922 168.1229 0000716  62.3824 332.6404 12.62271754660161
